NORAD_CAT_ID,OBJECT_NAME,OBJECT_TYPE,EPOCH,MEAN_MOTION,ECCENTRICITY,INCLINATION,RA_OF_ASC_NODE,ARG_OF_PERICENTER,MEAN_ANOMALY,BSTAR,MEAN_MOTION_DOT,MEAN_MOTION_DDOT,TLE_LINE0,TLE_LINE1,TLE_LINE2,SEMIMAJOR_AXIS,PERIOD,APOGEE,PERIGEE,DECAYED
53167.0,STARLINK-3683,PAYLOAD,2023-07-31 00:57:23,15.0885158,0.000142,53.2167,105.7239,79.2421,280.8731,0.00010655,1.409e-05,0.0,0 STARLINK-3683,1 53167U 22083AM  23212.03985141  .00001409  00000-0  10655-3 0  9992,2 53167  53.2167 105.7239 0001420  79.2421 280.8731 15.08851580 58381,6917.845,95.437,540.692,538.728,0.0
53167.0,STARLINK-3683,PAYLOAD,2023-07-31 10:29:42,15.08837861,0.0001735,53.2167,103.94,78.2102,281.9084,1.1397e-05,-1.07e-06,0.0,0 STARLINK-3683,1 53167U 22083AM  23212.43729909 -.00000107  00000-0  11397-4 0  9994,2 53167  53.2167 103.9400 0001735  78.2102 281.9084 15.08837861 58441,6917.887,95.438,540.952,538.552,0.0
53167.0,STARLINK-3683,PAYLOAD,2023-08-01 16:42:02,15.08839604,0.0001452,53.2166,98.2878,89.3686,270.7472,5.1444e-05,5.31e-06,0.0,0 STARLINK-3683,1 53167U 22083AM  23213.69586124  .00000531  00000-0  51444-4 0  9990,2 53167  53.2166  98.2878 0001452  89.3686 270.7472 15.08839604 58636,6917.882,95.438,540.751,538.742,0.0
53167.0,STARLINK-3683,PAYLOAD,2023-08-02 22:54:21,15.08854423,0.0001328,53.2166,92.637,97.8044,262.3099,0.00039483,6.004e-05,0.0,0 STARLINK-3683,1 53167U 22083AM  23214.95441536  .00006004  00000-0  39483-3 0  9996,2 53167  53.2166  92.6370 0001328  97.8044 262.3099 15.08854423 58824,6917.836,95.437,540.62,538.783,0.0
53167.0,STARLINK-3683,PAYLOAD,2023-08-04 01:55:55,15.08839655,0.0001175,53.2161,87.5813,106.9346,253.1775,5.019e-05,5.11e-06,0.0,0 STARLINK-3683,1 53167U 22083AM  23216.08050121  .00000511  00000-0  50190-4 0  9994,2 53167  53.2161  87.5813 0001175 106.9346 253.1775 15.08839655 58998,6917.881,95.438,540.559,538.934,0.0
53167.0,STARLINK-3683,PAYLOAD,2023-08-05 17:40:34,15.0883963,0.0001363,53.216,80.1508,104.0474,256.067,0.00052194,8.028e-05,0.0,0 STARLINK-3683,1 53167U 22083AM  23217.73650622  .00008028  00000-0  52194-3 0  9995,2 53167  53.2160  80.1508 0001363 104.0474 256.0670 15.08839630 59245,6917.882,95.438,540.689,538.804,0.0
53167.0,STARLINK-3683,PAYLOAD,2023-08-06 07:59:02,15.08833801,0.0001288,53.2162,77.474,81.1647,278.9491,-2.4402e-05,-6.76e-06,0.0,0 STARLINK-3683,1 53167U 22083AM  23218.33266794 -.00000676  00000-0 -24402-4 0  9990,2 53167  53.2162  77.4740 0001288  81.1647 278.9491 15.08833801 59335,6917.899,95.438,540.655,538.873,0.0
53167.0,STARLINK-3683,PAYLOAD,2023-08-06 23:52:54,15.0882155,9.57e-05,53.2151,74.4998,79.2702,280.8398,-0.00018036,-3.155e-05,0.0,0 STARLINK-3683,1 53167U 22083AM  23218.99507804 -.00003155  00000-0 -18036-3 0  9992,2 53167  53.2151  74.4998 0000957  79.2702 280.8398 15.08821550 59434,6917.937,95.439,540.464,539.14,0.0
53167.0,STARLINK-3683,PAYLOAD,2023-08-07 07:49:50,15.08833759,0.0001,53.2161,73.013,80.5855,279.525,2.8395e-05,1.64e-06,0.0,0 STARLINK-3683,1 53167U 22083AM  23219.32627707  .00000164  00000-0  28395-4 0  9990,2 53167  53.2161  73.0130 0001000  80.5855 279.5250 15.08833759 59483,6917.899,95.438,540.456,539.073,0.0
53167.0,STARLINK-3683,PAYLOAD,2023-08-07 20:32:55,15.08847768,8.38e-05,53.2159,70.6329,82.038,278.0707,0.00024108,3.552e-05,0.0,0 STARLINK-3683,1 53167U 22083AM  23219.85619266  .00003552  00000-0  24108-3 0  9990,2 53167  53.2159  70.6329 0000838  82.0380 278.0707 15.08847768 59566,6917.857,95.437,540.301,539.142,0.0
53167.0,STARLINK-3683,PAYLOAD,2023-08-08 23:34:27,15.08870314,8.59e-05,53.2163,65.5769,70.3102,289.7983,0.00068213,0.00010594,0.0,0 STARLINK-3683,1 53167U 22083AM  23220.98226358  .00010594  00000-0  68213-3 0  9991,2 53167  53.2163  65.5769 0000859  70.3102 289.7983 15.08870314 59734,6917.788,95.436,540.247,539.058,0.0
53167.0,STARLINK-3683,PAYLOAD,2023-08-09 15:28:18,15.08846576,7.74e-05,53.217,62.6027,108.9084,251.1992,-8.4529e-05,-1.633e-05,0.0,0 STARLINK-3683,1 53167U 22083AM  23221.64466377 -.00001633  00000-0 -84529-4 0  9997,2 53167  53.2170  62.6027 0000774 108.9084 251.1992 15.08846576 59837,6917.86,95.437,540.261,539.19,0.0
53167.0,STARLINK-3683,PAYLOAD,2023-08-10 23:16:01,15.08844254,0.0001035,53.2167,56.6565,81.4649,278.646,0.00021,3.056e-05,0.0,0 STARLINK-3683,1 53167U 22083AM  23222.96946456  .00003056  00000-0  21000-3 0  9997,2 53167  53.2167  56.6565 0001035  81.4649 278.6460 15.08844254 60035,6917.867,95.437,540.448,539.016,0.0
53167.0,STARLINK-3683,PAYLOAD,2023-08-11 05:37:34,15.08835856,9.33e-05,53.2164,55.4659,79.8534,280.2563,0.00012757,1.743e-05,0.0,0 STARLINK-3683,1 53167U 22083AM  23223.23442800  .00001743  00000-0  12757-3 0  9992,2 53167  53.2164  55.4659 0000933  79.8534 280.2563 15.08835856 60078,6917.893,95.438,540.403,539.113,0.0
53167.0,STARLINK-3683,PAYLOAD,2023-08-12 11:49:54,15.08834462,8.71e-05,53.2172,49.8173,94.301,265.8081,3.0394e-05,1.96e-06,0.0,0 STARLINK-3683,1 53167U 22083AM  23224.49299186  .00000196  00000-0  30394-4 0  9997,2 53167  53.2172  49.8173 0000871  94.3010 265.8081 15.08834462 60264,6917.897,95.438,540.365,539.16,0.0
53167.0,STARLINK-3683,PAYLOAD,2023-08-13 18:02:14,15.08840113,9.21e-05,53.2171,44.1667,84.157,275.9527,3.6353e-05,2.91e-06,0.0,0 STARLINK-3683,1 53167U 22083AM  23225.75155132  .00000291  00000-0  36353-4 0  9996,2 53167  53.2171  44.1667 0000921  84.1570 275.9527 15.08840113 60451,6917.88,95.438,540.382,539.108,0.0
53167.0,STARLINK-3683,PAYLOAD,2023-08-14 22:39:10,15.08845647,9.73e-05,53.2167,38.8175,75.3719,284.7381,0.00012561,1.712e-05,0.0,0 STARLINK-3683,1 53167U 22083AM  23226.94386936  .00001712  00000-0  12561-3 0  9999,2 53167  53.2167  38.8175 0000973  75.3719 284.7381 15.08845647 60637,6917.863,95.437,540.401,539.055,0.0
53167.0,STARLINK-3683,PAYLOAD,2023-08-15 05:00:43,15.08840531,0.000105,53.217,37.6282,73.5103,286.6004,0.00010573,1.395e-05,0.0,0 STARLINK-3683,1 53167U 22083AM  23227.20883381  .00001395  00000-0  10573-3 0  9993,2 53167  53.2170  37.6282 0001050  73.5103 286.6004 15.08840531 60675,6917.879,95.438,540.47,539.017,0.0
53167.0,STARLINK-3683,PAYLOAD,2023-08-16 11:13:02,15.08837184,8.92e-05,53.2163,31.9759,87.2196,272.8898,6.6617e-05,7.73e-06,0.0,0 STARLINK-3683,1 53167U 22083AM  23228.46739488  .00000773  00000-0  66617-4 0  9990,2 53167  53.2163  31.9759 0000892  87.2196 272.8898 15.08837184 60869,6917.889,95.438,540.371,539.137,0.0
53167.0,STARLINK-3683,PAYLOAD,2023-08-16 17:34:34,15.08845782,0.0001251,53.2153,30.7863,87.6787,272.4349,7.2328e-05,8.64e-06,0.0,0 STARLINK-3683,1 53167U 22083AM  23228.73234921  .00000864  00000-0  72328-4 0  9999,2 53167  53.2153  30.7863 0001251  87.6787 272.4349 15.08845782 60906,6917.863,95.437,540.593,538.862,0.0
53167.0,STARLINK-3683,PAYLOAD,2023-08-17 11:03:49,15.08837885,9.68e-05,53.2169,27.515,89.408,270.7023,6.7848e-05,7.92e-06,0.0,0 STARLINK-3683,1 53167U 22083AM  23229.46099391  .00000792  00000-0  67848-4 0  9991,2 53167  53.2169  27.5150 0000968  89.4080 270.7023 15.08837885 61014,6917.887,95.438,540.422,539.082,0.0
53167.0,STARLINK-3683,PAYLOAD,2023-08-17 22:11:31,15.08845242,0.0001065,53.2166,25.4328,95.5719,264.5394,7.9737e-05,9.82e-06,0.0,0 STARLINK-3683,1 53167U 22083AM  23229.92466826  .00000982  00000-0  79737-4 0  9994,2 53167  53.2166  25.4328 0001065  95.5719 264.5394 15.08845242 61086,6917.864,95.437,540.466,538.993,0.0
53167.0,STARLINK-3683,PAYLOAD,2023-08-18 02:57:41,15.0882801,0.0001477,53.217,24.5397,93.1001,267.016,6.6595e-05,7.72e-06,0.0,0 STARLINK-3683,1 53167U 22083AM  23230.12339862  .00000772  00000-0  66595-4 0  9992,2 53167  53.2170  24.5397 0001477  93.1001 267.0160 15.08828010 61119,6917.917,95.438,540.804,538.76,0.0
53167.0,STARLINK-3683,PAYLOAD,2023-08-18 17:16:09,15.08839675,0.0001411,53.217,21.8656,81.3434,278.7718,3.7767e-05,3.13e-06,0.0,0 STARLINK-3683,1 53167U 22083AM  23230.71955592  .00000313  00000-0  37767-4 0  9991,2 53167  53.2170  21.8656 0001411  81.3434 278.7718 15.08839675 61201,6917.881,95.438,540.722,538.77,0.0
53167.0,STARLINK-3683,PAYLOAD,2023-08-19 18:42:19,15.08843926,0.0001023,53.2187,17.1065,80.9328,279.178,8.6613e-05,1.091e-05,0.0,0 STARLINK-3683,1 53167U 22083AM  23231.77939510  .00001091  00000-0  86613-4 0  9998,2 53167  53.2187  17.1065 0001023  80.9328 279.1780 15.08843926 61362,6917.868,95.437,540.441,539.026,0.0
53167.0,STARLINK-3683,PAYLOAD,2023-08-21 02:30:02,15.08839831,9.51e-05,53.2186,11.1581,76.1074,284.0024,0.00011443,1.534e-05,0.0,0 STARLINK-3683,1 53167U 22083AM  23233.10419858  .00001534  00000-0  11443-3 0  9995,2 53167  53.2186  11.1581 0000951  76.1074 284.0024 15.08839831 61560,6917.881,95.438,540.404,539.088,0.0
53167.0,STARLINK-3683,PAYLOAD,2023-08-22 08:42:22,15.08842081,8e-05,53.2188,5.51,98.5368,261.5715,-7.5132e-06,-4.07e-06,0.0,0 STARLINK-3683,1 53167U 22083AM  23234.36276207 -.00000407  00000-0 -75132-5 0  9990,2 53167  53.2188   5.5100 0000800  98.5368 261.5715 15.08842081 61752,6917.874,95.437,540.292,539.186,0.0
53167.0,STARLINK-3683,PAYLOAD,2023-08-22 16:39:17,15.08847109,0.0001007,53.2181,4.0255,73.8174,286.2929,3.926e-05,3.37e-06,0.0,0 STARLINK-3683,1 53167U 22083AM  23234.69395791  .00000337  00000-0  39260-4 0  9997,2 53167  53.2181   4.0255 0001007  73.8174 286.2929 15.08847109 61804,6917.859,95.437,540.42,539.027,0.0
53167.0,STARLINK-3683,PAYLOAD,2023-08-23 11:43:55,15.08839958,9.74e-05,53.218,0.4575,76.1522,283.9579,9.4536e-05,1.217e-05,0.0,0 STARLINK-3683,1 53167U 22083AM  23235.48884077  .00001217  00000-0  94536-4 0  9990,2 53167  53.2180   0.4575 0000974  76.1522 283.9579 15.08839958 61924,6917.881,95.438,540.419,539.072,0.0
53167.0,STARLINK-3683,PAYLOAD,2023-08-24 16:20:51,15.08845333,0.0001192,53.2195,355.0993,112.0245,248.0874,6.7575e-05,7.88e-06,0.0,0 STARLINK-3683,1 53167U 22083AM  23236.68115696  .00000788  00000-0  67575-4 0  9992,2 53167  53.2195 355.0993 0001192 112.0245 248.0874 15.08845333 62103,6917.864,95.437,540.554,538.904,0.0
